CIC_OEM_VERS = 2.0
CREATION_DATE = 2025-02-12T09:04:53.138420
ORIGINATOR = ISAE-SUPAERO


META_START
OBJECT_NAME = PLEIADES-NEO3
OBJECT_ID = PLEIADES-NEO3
CENTER_NAME = Earth
REF_FRAME = EME2000
TIME_SYSTEM = UTC
START_TIME = 2025-02-12T04:04:50.426
USEABLE_START_TIME = 2025-02-12T04:04:50.426
USEABLE_STOP_TIME = 2025-02-12T23:54:50.426
STOP_TIME = 2025-02-12T23:54:50.426
INTERPOLATION = lagrange
INTERPOLATION_DEGREE = 5
META_STOP



60718 14690.426 -3495.6964 6067.1291 14.68077 0.9059289 0.50301718 7.473401
60718 15110.426 -2775.4878 5659.344099999999 3045.7508 2.4635390000000004 -2.4094097000000003 6.711733199999999
60718 15530.426 -1496.295 4111.7534 5461.7271 3.5231582 -4.8330144 4.5960639
60718 15950.426 83.921197 1737.0828999999999 6776.4357 3.8729319 -6.281289200000001 1.557712
60718 16370.426 1647.2948999999999 -986.61617 6726.152400000001 3.4443919000000003 -6.4669774 -1.7933346
60718 16790.426 2879.4301 -3511.813 5320.2408 2.3222159 -5.351707800000001 -4.787466800000001
60718 17210.426 3533.1189 -5331.6324 2842.3041000000003 0.72867601 -3.1529336 -6.8173492
60718 17630.426 3474.2329 -6075.7575 -209.07276000000002 -1.0103552 -0.32112313000000003 -7.470061800000001
60718 18050.426 2712.3293 -5590.9627 -3220.0252 -2.5472313 2.5760753 -6.6197881
60718 18470.426 1400.8676 -3973.532 -5577.4319000000005 -3.5745752000000004 4.9606774 -4.4318184
60718 18890.426 -191.7696 -1556.3736000000001 -6804.4647 -3.8794029 6.3443565 -1.3393235
60718 19310.426 -1746.096 1173.8505 -6660.6975 -3.394935 6.4369666 2.0255314
60718 19730.426 -2948.2451 3666.8070000000002 -5171.6867999999995 -2.2248059 5.2276129000000005 4.9732356
60718 20150.426 -3556.2032999999997 5421.4844 -2634.9251 -0.60373543 2.9603157 6.9160203000000005
60718 20570.426 -3442.4866 6075.826400000001 437.4841 1.1371086000000001 0.10035366999999999 7.4636126
60718 20990.426 -2633.3703 5502.823 3421.335 2.6496317 -2.7821004 6.5003197
60718 21410.426 -1292.4876000000002 3818.6229 5712.5830000000005 3.6257725 -5.0997689 4.2232975999999995
60718 21830.426 309.01584 1364.5207 6849.2126 3.8699670999999998 -6.386247900000001 1.0973545
60718 22250.426 1848.3935000000001 -1364.4272 6603.3730000000005 3.3349324 -6.3862934 -2.2478229
60718 22670.426 3015.6005 -3818.6303 5024.6428 2.1277238 -5.0998989 -5.1413764
60718 23090.426 3574.943 -5503.0778 2430.6126 0.4897869 -2.7832196 -6.9990873
60718 23510.426 3412.9846000000002 -6077.2278 -655.10087 -1.2476965 0.095993178 -7.4417876
60718 23930.426 2562.8187000000003 -5425.9365 -3608.2485 -2.7314129 2.952006 -6.3805833000000005
60718 24350.426 1196.492 -3682.0883 -5833.660400000001 -3.6626517 5.2079104 -4.0363942
60718 24770.426 -410.06387 -1199.0517 -6885.0773 -3.8570158 6.4139939 -0.88546396
60718 25190.426 -1934.4238 1524.3836000000001 -6552.536099999999 -3.2779520000000004 6.3335173000000005 2.4423382
60718 25610.426 -3070.5781 3941.7802 -4901.9005 -2.0392817 4.980575300000001 5.2844764
60718 26030.426 -3589.4505 5566.919400000001 -2262.631 -0.38564796 2.6192715 7.0669146000000005
60718 26450.426 -3383.8898 6068.2463 833.45975 1.3484306 -0.27412148000000003 7.422973
60718 26870.426 -2495.0993 5344.377 3760.8169 2.811176 -3.1136144 6.2767531
60718 27290.426 -1102.7626 3541.9900000000002 5927.3135 3.7051786000000004 -5.3215996 3.8632037
60718 27710.426 511.85837 1025.8148 6896.490400000001 3.8518423 -6.454819400000001 0.67348104
60718 28130.426 2023.4846000000002 -1696.881 6473.9898 3.223103 -6.2884117999999996 -2.6509787
60718 28550.426 3127.6326000000004 -4077.855 4744.5871 1.9442309 -4.854743099999999 -5.4434528
60718 28970.426 3601.0742000000005 -5636.4856 2056.1416 0.27117653 -2.4393832000000004 -7.1388177
60718 29390.426 3347.6229 -6057.4006 -1048.4277 -1.4572218000000001 0.46923324000000005 -7.390211000000001
60718 29810.426 2419.0626 -5256.6867 -3940.7668 -2.8893817 3.2790748 -6.1477164
60718 30230.426 1003.1548 -3397.2359 -6038.1355 -3.7371076 5.4225655 -3.6699263
60718 30650.426 -614.23299 -855.6090600000001 -6920.1641 -3.8332611 6.4736061000000005 -0.4590166
60718 31070.426 -2108.4435 1857.5938 -6410.7775 -3.1605147000000002 6.2259042 2.8436655
60718 31490.426 -3179.3477000000003 4197.741599999999 -4611.2626 -1.8512457 4.7264710999999995 5.5798201
60718 31910.426 -3610.6501000000003 5693.643 -1880.8368 -0.16484506 2.2696209 7.195832800000001
60718 32330.426 -3313.1748 6040.040599999999 1229.0983999999999 1.5572286 -0.64873627 7.3583099
60718 32750.426 -2346.8905 5167.1769 4090.2373 2.9650078 -3.4361734000000004 6.031698500000001
60718 33170.426 -907.19148 3252.0367 6124.2732000000005 3.7730813 -5.5267804 3.4886684
60718 33590.426 715.27983 681.92463 6922.013900000001 3.8207117 -6.5021626 0.24556249
60718 34010.426 2193.8558 -2025.3975 6323.5767000000005 3.0995493 -6.1691471 -3.0465966
60718 34430.426 3230.7608999999998 -4324.9537 4448.906599999999 1.7529531 -4.5927446000000005 -5.7276999
60718 34850.426 3616.1969 -5752.3562 1675.0353 0.050545243999999996 -2.0871553 -7.2542987000000005
60718 35270.426 3271.7009 -6018.6595 -1437.8146000000002 -1.6626737 0.84056668 -7.3135393
60718 35690.426 2264.6996 -5066.0994 -4258.3336 -3.0413766 3.5991645 -5.8977639
60718 36110.426 799.77794 -3089.5438 -6216.927900000001 -3.8070142000000002 5.6330057 -3.2873102
60718 36530.426 -826.95064 -488.80001000000004 -6917.6277 -3.8021815 6.527839200000001 -0.0060947336
60718 36950.426 -2286.0443 2208.4772000000003 -6221.5834 -3.0251583 6.0968481 3.2762152
60718 37370.426 -3287.0755 4464.7126 -4270.1936 -1.6365383 4.4305168 5.8843981
60718 37790.426 -3619.8262000000004 5812.597900000001 -1450.8018000000002 0.079470909 1.8771988 7.3095998
60718 38210.426 -3222.4374 5988.019200000001 1661.7768 1.780602 -1.0566612 7.2568696
60718 38630.426 -2174.073 4954.0801 4438.8042000000005 3.1212476000000002 -3.7743139 5.7395423
60718 39050.426 -688.64525 2923.9137 6320.0573 3.8308428 -5.7268745 3.0661008
60718 39470.426 935.2503 306.08849 6928.1498 3.7698961 -6.5258500999999995 -0.21939839
60718 39890.426 2371.4087999999997 -2373.1798 6141.9755000000005 2.9520312 -6.0145872 -3.4606367000000002
60718 40310.426 3331.0344 -4575.4986 4118.6738 1.5389697000000002 -4.2926799 -6.0098151
60718 40730.426 3620.6219 -5857.541 1264.4521000000002 -0.18729220000000002 -1.7014956 -7.3487016
60718 41150.426 3179.1338 -5956.8168 -1845.7294 -1.8759358 1.232146 -7.2052172
60718 41570.426 2095.0638 -4851.8116 -4580.977 -3.1884841 3.9200071 -5.6089602
60718 41990.426 587.51038 -2766.3307000000004 -6388.7743 -3.8596442000000004 5.821058600000001 -2.8751088
60718 42410.426 -1038.7834 -122.36341 -6904.2148 -3.7489164 6.544490799999999 0.44863327
60718 42830.426 -2455.6384 2545.0701000000004 -6028.3745 -2.8747082 5.9346694 3.6791727
60718 43250.426 -3377.0098 4699.2253 -3932.0498 -1.4236004 4.1299606 6.1553773000000005
60718 43670.426 -3616.6009 5904.3953 -1040.7138 0.31327156 1.4951731 7.3888274
60718 44090.426 -3124.6252000000004 5915.1511 2061.3864 1.9861577 -1.4373259 7.136838300000001
60718 44510.426 -2000.7993000000001 4730.47 4748.0007000000005 3.2624143 -4.086017 5.444137800000001
60718 44930.426 -472.68879 2590.4438 6474.490900000001 3.8802456000000003 -5.9113152 2.6455622
60718 45350.426 1149.4706 -69.238242 6893.9825 3.7123508000000003 -6.5372354999999995 -0.68141538
60718 45770.426 2540.1895 -2715.0872999999997 5921.4097 2.7966091000000004 -5.8461889000000005 -3.8706707000000002
60718 46190.426 3418.9698 -4813.715 3752.4459 1.3160044 -3.9755291 -6.280638
60718 46610.426 3608.0157999999997 -5941.1963 824.54248 -0.43129454 -1.3011783000000001 -7.4218409
60718 47030.426 3069.1092000000003 -5869.9997 -2270.3397999999997 -2.0904497 1.633715 -7.0617864
60718 47450.426 1911.5917 -4615.7780999999995 -4906.923900000001 -3.3253671 4.2332638 -5.2784804
60718 47870.426 370.10414000000003 -2434.4084 -6555.2927 -3.8894729000000003 5.976092899999999 -2.4377825
60718 48290.426 -1245.6325 235.03946 -6886.2907000000005 -3.6733818 6.5188579 0.88829093
60718 48710.426 -2611.7149 2857.3056 -5833.8658 -2.7205036000000002 5.7548788 4.0386095
60718 49130.426 -3453.333 4905.6678 -3607.2937 -1.2179745 3.8315731 6.3835859
60718 49550.426 -3598.7273999999998 5964.7518 -652.32385 0.5346917 1.1301668999999999 7.4464084999999995
60718 49970.426 -3018.1072999999997 5820.5421 2434.8822999999998 2.1828176 -1.8054168 7.001071700000001
60718 50390.426 -1827.5165 4499.9727 5028.8057 3.3889694 -4.3744954 5.1381383
60718 50810.426 -268.28394000000003 2271.5728 6605.4674 3.9093527 -6.056374 2.2400358000000002
60718 51230.426 1345.1656 -414.84832 6847.608700000001 3.6423012 -6.5170884 -1.1061982000000001
60718 51650.426 2687.8391 -3017.7741 5707.6095000000005 2.6417759999999997 -5.6654093 -4.2294868
60718 52070.426 3489.003 -5012.631 3414.8046000000004 1.1075642 -3.6706438 -6.5014156000000005
60718 52490.426 3586.5022000000004 -5996.4862 431.54308000000003 -0.6513235100000001 -0.93389359 -7.4601975000000005
60718 52910.426 2960.4905 -5770.7105 -2639.1402000000003 -2.2777013999999998 1.9890978000000001 -6.9107467
60718 53330.426 1737.4265 -4381.4057999999995 -5177.138900000001 -3.4429026 4.5064208 -4.969270000000001
60718 53750.426 165.69432 -2112.6111 -6672.6822 -3.9135371 6.1122314 -2.0316048
60718 54170.426 -1439.3144 579.9184399999999 -6826.7303 -3.5990379 6.490676000000001 1.3104402
60718 54590.426 -2755.6907 3156.0933 -5608.5551 -2.5620898000000003 5.5671343 4.392164
60718 55010.426 -3518.3494 5097.986900000001 -3260.9168 -1.00696 3.521141 6.5963201
60718 55430.426 -3571.4538 6011.4098 -255.08031 0.7549492299999999 0.7605960700000001 7.4740267000000005
60718 55850.426 -2904.3338 5712.7047 2803.108 2.3673181 -2.1587359999999998 6.8377611
60718 56270.426 -1650.57 4260.071599999999 5293.7109 3.5002264000000003 -4.6392276 4.8185534
60718 56690.426 -63.944612 1948.3331 6714.0251 3.9259207000000003 -6.180431 1.8301351
60718 57110.426 1535.7042 -755.84597 6779.2938 3.5611061 -6.4761488 -1.5243159000000002
